{
  "type": "FeatureCollection",
  "features": [
    {
      "type": "Feature",
      "properties": {
        "norad_id": 41772,
        "name": "SKYSAT-C5",
        "group": "resource",
        "lat": -67.623776758998,
        "lon": 39.41793909894676,
        "alt_km": 468.5987967263318,
        "timestamp": "2025-12-03T17:47:50.369516+00:00",
        "meta_object_name": "SKYSAT-C5",
        "meta_object_id": "2016-058C",
        "meta_epoch": "2025-12-03T02:27:18.996480",
        "meta_mean_motion": 15.35381437,
        "meta_eccentricity": 0.00026906,
        "meta_inclination": 97.0777,
        "meta_ra_of_asc_node": 21.2377,
        "meta_arg_of_pericenter": 130.7295,
        "meta_mean_anomaly": 229.4184,
        "meta_ephemeris_type": 0,
        "meta_classification_type": "U",
        "meta_norad_cat_id": 41772,
        "meta_element_set_no": 999,
        "meta_rev_at_epoch": 51368,
        "meta_bstar": 0.0018731044,
        "meta_mean_motion_dot": 0.00064768,
        "meta_mean_motion_ddot": 0,
        "tle_line1": "1 41772U 16058C   25337.10230320  .00064768  00000+0  18731-2 0  9994",
        "tle_line2": "2 41772  97.0777  21.2377 0002690 130.7295 229.4184 15.35381437513689"
      },
      "geometry": {
        "type": "Point",
        "coordinates": [
          39.41793909894676,
          -67.623776758998
        ]
      }
    },
    {
      "type": "Feature",
      "properties": {
        "norad_id": 41773,
        "name": "SKYSAT-C2",
        "group": "resource",
        "lat": -63.09467697921829,
        "lon": 168.56294539691865,
        "alt_km": 465.8308404983054,
        "timestamp": "2025-12-03T17:47:50.369526+00:00",
        "meta_object_name": "SKYSAT-C2",
        "meta_object_id": "2016-058D",
        "meta_epoch": "2025-12-03T01:06:49.369536",
        "meta_mean_motion": 15.36929314,
        "meta_eccentricity": 0.00051007,
        "meta_inclination": 97.0371,
        "meta_ra_of_asc_node": 1.9867,
        "meta_arg_of_pericenter": 58.7522,
        "meta_mean_anomaly": 301.4222,
        "meta_ephemeris_type": 0,
        "meta_classification_type": "U",
        "meta_norad_cat_id": 41773,
        "meta_element_set_no": 999,
        "meta_rev_at_epoch": 51487,
        "meta_bstar": 0.00040683044,
        "meta_mean_motion_dot": 0.00014631,
        "meta_mean_motion_ddot": 0,
        "tle_line1": "1 41773U 16058D   25337.04640474  .00014631  00000+0  40683-3 0  9999",
        "tle_line2": "2 41773  97.0371   1.9867 0005100  58.7522 301.4222 15.36929314514879"
      },
      "geometry": {
        "type": "Point",
        "coordinates": [
          168.56294539691865,
          -63.09467697921829
        ]
      }
    },
    {
      "type": "Feature",
      "properties": {
        "norad_id": 41774,
        "name": "SKYSAT-C3",
        "group": "resource",
        "lat": -24.70158253370003,
        "lon": -171.2978750047951,
        "alt_km": 440.53364572057217,
        "timestamp": "2025-12-03T17:47:50.369536+00:00",
        "meta_object_name": "SKYSAT-C3",
        "meta_object_id": "2016-058E",
        "meta_epoch": "2025-12-03T09:08:07.810944",
        "meta_mean_motion": 15.43889152,
        "meta_eccentricity": 0.0001368,
        "meta_inclination": 96.9312,
        "meta_ra_of_asc_node": 11.566,
        "meta_arg_of_pericenter": 101.0766,
        "meta_mean_anomaly": 259.0637,
        "meta_ephemeris_type": 0,
        "meta_classification_type": "U",
        "meta_norad_cat_id": 41774,
        "meta_element_set_no": 999,
        "meta_rev_at_epoch": 51581,
        "meta_bstar": 0.00053253,
        "meta_mean_motion_dot": 0.00024142,
        "meta_mean_motion_ddot": 0,
        "tle_line1": "1 41774U 16058E   25337.38064596  .00024142  00000+0  53253-3 0  9997",
        "tle_line2": "2 41774  96.9312  11.5660 0001368 101.0766 259.0637 15.43889152515811"
      },
      "geometry": {
        "type": "Point",
        "coordinates": [
          -171.2978750047951,
          -24.70158253370003
        ]
      }
    },
    {
      "type": "Feature",
      "properties": {
        "norad_id": 41785,
        "name": "ALSAT 1B",
        "group": "resource",
        "lat": -53.92561172649127,
        "lon": 159.10030538775013,
        "alt_km": 663.4462665396404,
        "timestamp": "2025-12-03T17:47:50.369547+00:00",
        "meta_object_name": "ALSAT 1B",
        "meta_object_id": "2016-059C",
        "meta_epoch": "2025-12-03T13:28:22.956384",
        "meta_mean_motion": 14.72059765,
        "meta_eccentricity": 0.0010387,
        "meta_inclination": 97.7819,
        "meta_ra_of_asc_node": 349.7471,
        "meta_arg_of_pericenter": 129.8274,
        "meta_mean_anomaly": 230.385,
        "meta_ephemeris_type": 0,
        "meta_classification_type": "U",
        "meta_norad_cat_id": 41785,
        "meta_element_set_no": 999,
        "meta_rev_at_epoch": 49179,
        "meta_bstar": 0.0001222,
        "meta_mean_motion_dot": 7.21e-06,
        "meta_mean_motion_ddot": 0,
        "tle_line1": "1 41785U 16059C   25337.56137681  .00000721  00000+0  12220-3 0  9992",
        "tle_line2": "2 41785  97.7819 349.7471 0010387 129.8274 230.3850 14.72059765491792"
      },
      "geometry": {
        "type": "Point",
        "coordinates": [
          159.10030538775013,
          -53.92561172649127
        ]
      }
    },
    {
      "type": "Feature",
      "properties": {
        "norad_id": 41787,
        "name": "PATHFINDER 1",
        "group": "resource",
        "lat": 71.32166738283249,
        "lon": -175.1005012607867,
        "alt_km": 641.7193270526241,
        "timestamp": "2025-12-03T17:47:50.369557+00:00",
        "meta_object_name": "PATHFINDER 1",
        "meta_object_id": "2016-059E",
        "meta_epoch": "2025-12-03T10:45:58.779072",
        "meta_mean_motion": 14.67294767,
        "meta_eccentricity": 0.0029964,
        "meta_inclination": 97.8139,
        "meta_ra_of_asc_node": 340.6535,
        "meta_arg_of_pericenter": 109.4041,
        "meta_mean_anomaly": 251.0407,
        "meta_ephemeris_type": 0,
        "meta_classification_type": "U",
        "meta_norad_cat_id": 41787,
        "meta_element_set_no": 999,
        "meta_rev_at_epoch": 49100,
        "meta_bstar": 0.00022042,
        "meta_mean_motion_dot": 1.205e-05,
        "meta_mean_motion_ddot": 0,
        "tle_line1": "1 41787U 16059E   25337.44859698  .00001205  00000+0  22042-3 0  9991",
        "tle_line2": "2 41787  97.8139 340.6535 0029964 109.4041 251.0407 14.67294767491007"
      },
      "geometry": {
        "type": "Point",
        "coordinates": [
          -175.1005012607867,
          71.32166738283249
        ]
      }
    },
    {
      "type": "Feature",
      "properties": {
        "norad_id": 41790,
        "name": "SCATSAT 1",
        "group": "resource",
        "lat": 79.48895251022371,
        "lon": -16.251962585503385,
        "alt_km": 613.964794170728,
        "timestamp": "2025-12-03T17:47:50.369568+00:00",
        "meta_object_name": "SCATSAT 1",
        "meta_object_id": "2016-059H",
        "meta_epoch": "2025-12-03T02:48:20.619648",
        "meta_mean_motion": 14.78880649,
        "meta_eccentricity": 0.00557828,
        "meta_inclination": 98.148,
        "meta_ra_of_asc_node": 33.6671,
        "meta_arg_of_pericenter": 158.5584,
        "meta_mean_anomaly": 201.7981,
        "meta_ephemeris_type": 0,
        "meta_classification_type": "U",
        "meta_norad_cat_id": 41790,
        "meta_element_set_no": 999,
        "meta_rev_at_epoch": 7260,
        "meta_bstar": 0.00033695932,
        "meta_mean_motion_dot": 2.491e-05,
        "meta_mean_motion_ddot": 0,
        "tle_line1": "1 41790U 16059H   25337.11690532  .00002491  00000+0  33696-3 0  9994",
        "tle_line2": "2 41790  98.1480  33.6671 0055782 158.5584 201.7981 14.78880649 72600"
      },
      "geometry": {
        "type": "Point",
        "coordinates": [
          -16.251962585503385,
          79.48895251022371
        ]
      }
    },
    {
      "type": "Feature",
      "properties": {
        "norad_id": 41875,
        "name": "GOKTURK 1A",
        "group": "resource",
        "lat": -29.013207062771222,
        "lon": -125.2185992711103,
        "alt_km": 690.4611683000267,
        "timestamp": "2025-12-03T17:47:50.369578+00:00",
        "meta_object_name": "GOKTURK 1A",
        "meta_object_id": "2016-073A",
        "meta_epoch": "2025-12-03T11:21:51.566400",
        "meta_mean_motion": 14.6276154,
        "meta_eccentricity": 0.0001238,
        "meta_inclination": 98.1431,
        "meta_ra_of_asc_node": 229.9623,
        "meta_arg_of_pericenter": 81.9343,
        "meta_mean_anomaly": 278.1999,
        "meta_ephemeris_type": 0,
        "meta_classification_type": "U",
        "meta_norad_cat_id": 41875,
        "meta_element_set_no": 999,
        "meta_rev_at_epoch": 48021,
        "meta_bstar": 0.00017437,
        "meta_mean_motion_dot": 8.42e-06,
        "meta_mean_motion_ddot": 0,
        "tle_line1": "1 41875U 16073A   25337.47351350  .00000842  00000+0  17437-3 0  9998",
        "tle_line2": "2 41875  98.1431 229.9623 0001238  81.9343 278.1999 14.62761540480214"
      },
      "geometry": {
        "type": "Point",
        "coordinates": [
          -125.2185992711103,
          -29.013207062771222
        ]
      }
    }
  ]
}